GPS BIIA-23 (PRN 18)    
1 22877U 93068A   19120.47027793 -.00000037  00000-0  00000+0 0  9994
2 22877  54.6534  70.5045 0150357  79.1866  97.1909  2.00559676186914
GPS BIIR-2  (PRN 13)    
1 24876U 97035A   19120.12199069 -.00000007  00000-0  00000+0 0  9998
2 24876  55.4605 200.3479 0033426  74.4341 285.9832  2.00564753159509
GPS BIIR-3  (PRN 11)    
1 25933U 99055A   19120.48520907 -.00000081  00000-0  00000+0 0  9997
2 25933  52.0972  47.8986 0163775 107.9374  81.3686  2.00560170143327
GPS BIIR-4  (PRN 20)    
1 26360U 00025A   19120.22408729  .00000066  00000-0  00000+0 0  9992
2 26360  53.3174 126.4370 0042101 136.6973 270.6979  2.00561947139016
GPS BIIR-5  (PRN 28)    
1 26407U 00040A   19120.11964396 -.00000032  00000-0  00000+0 0  9990
2 26407  56.2909 318.4749 0192805 275.9073  29.8563  2.00560750137690
GPS BIIR-6  (PRN 14)    
1 26605U 00071A   19120.80366156  .00000006  00000-0  00000-0 0  9991
2 26605  55.0347 197.7878 0107434 249.1469 102.3142  2.00561054135304
GPS BIIR-8  (PRN 16)    
1 27663U 03005A   19118.28938355 -.00000035  00000-0  00000+0 0  9993
2 27663  56.3528 318.3187 0106957  31.5764 151.9140  2.00576957119014
GPS BIIR-9  (PRN 21)    
1 27704U 03010A   19120.28327560 -.00000039  00000-0  00000+0 0  9992
2 27704  54.3280  69.9966 0249190 276.9224 232.0345  2.00554730117853
GPS BIIR-10 (PRN 22)    
1 28129U 03058A   19120.31252089  .00000068  00000-0  00000+0 0  9994
2 28129  53.1295 129.2271 0074690 281.7160  77.4893  2.00546444112566
GPS BIIR-11 (PRN 19)    
1 28190U 04009A   19120.61211596 -.00000091  00000-0  00000-0 0  9998
2 28190  56.2596  19.0094 0093380  79.2603 135.6681  2.00568942110747
GPS BIIR-12 (PRN 23)    
1 28361U 04023A   19120.55083101  .00000011  00000-0  00000-0 0  9997
2 28361  54.0477 192.2145 0133226 230.7150 213.1736  2.00572418108807
GPS BIIR-13 (PRN 02)    
1 28474U 04045A   19120.72423868 -.00000039  00000-0  00000-0 0  9994
2 28474  54.6871  69.7124 0191515 260.1025 311.1906  2.00560770106190
GPS BIIRM-1 (PRN 17)    
1 28874U 05038A   19118.59006735 -.00000101  00000-0  00000+0 0  9992
2 28874  56.3846  16.4355 0130877 262.1037 313.9696  2.00557321 99543
GPS BIIRM-2 (PRN 31)    
1 29486U 06042A   19120.63832972 -.00000038  00000-0  00000-0 0  9996
2 29486  55.0207 254.9445 0092085 358.7783 177.7113  2.00571834 92196
GPS BIIRM-3 (PRN 12)    
1 29601U 06052A   19120.34050308 -.00000031  00000-0  00000-0 0  9992
2 29601  56.3313 317.1548 0074398  60.5637 300.2026  2.00566208 91167
GPS BIIRM-4 (PRN 15)    
1 32260U 07047A   19120.65148954  .00000018  00000-0  00000-0 0  9995
2 32260  53.1709 187.9428 0111196  43.4312 317.5081  2.00562816 84619
GPS BIIRM-5 (PRN 29)    
1 32384U 07062A   19120.39717256 -.00000092  00000-0  00000+0 0  9999
2 32384  56.4679  17.0005 0007605  94.3503 218.8591  2.00553860 83323
GPS BIIRM-6 (PRN 07)    
1 32711U 08012A   19120.55672157 -.00000039  00000-0  00000-0 0  9999
2 32711  54.7600 254.1489 0127240 219.4712 139.5687  2.00572945 81533
GPS BIIRM-8 (PRN 05)    
1 35752U 09043A   19120.20788220  .00000072  00000-0  00000+0 0  9998
2 35752  54.4135 131.8438 0054500  38.4785  93.9092  2.00563190 71098
GPS BIIF-1  (PRN 25)    
1 36585U 10022A   19120.87395319 -.00000031  00000-0  00000-0 0  9995
2 36585  55.6116 313.4676 0082566  49.9601 306.2468  2.00558421 65354
GPS BIIF-2  (PRN 01)    
1 37753U 11036A   19120.66484442 -.00000029  00000-0  00000-0 0  9999
2 37753  55.8845  73.6211 0085901  38.6278 253.2953  2.00566113 57037
GPS BIIF-3  (PRN 24)    
1 38833U 12053A   19120.24703337 -.00000041  00000-0  00000-0 0  9994
2 38833  53.7944 250.4096 0081566  33.4705 327.0156  2.00557932 47304
GPS BIIF-4  (PRN 27)    
1 39166U 13023A   19120.60599511 -.00000089  00000-0  00000-0 0  9991
2 39166  56.0686  13.1476 0069449  25.5169 334.8598  2.00568050 43643
GPS BIIF-5  (PRN 30)    
1 39533U 14008A   19120.60038738 -.00000040  00000-0  00000-0 0  9999
2 39533  53.9270 255.7844 0039862 191.9963 167.8804  2.00572216 37461
GPS BIIF-6  (PRN 06)    
1 39741U 14026A   19119.88945508 -.00000029  00000-0  00000+0 0  9996
2 39741  55.8641  73.1772 0018055 293.5676  66.2207  2.00575777 36269
GPS BIIF-7  (PRN 09)    
1 40105U 14045A   19120.47838488  .00000010  00000-0  00000-0 0  9998
2 40105  54.5742 192.4957 0010450 103.1709 257.0075  2.00561693 33865
GPS BIIF-8  (PRN 03)    
1 40294U 14068A   19119.84385581  .00000072  00000-0  00000+0 0  9999
2 40294  55.1652 133.3745 0019921  27.6762 332.4790  2.00548806 32931
GPS BIIF-9  (PRN 26)    
1 40534U 15013A   19119.98909552 -.00000033  00000-0  00000+0 0  9990
2 40534  54.5414 311.8950 0037069   6.0886 353.9728  2.00572794 30007
GPS BIIF-10  (PRN 08)   
1 40730U 15033A   19120.14665337 -.00000092  00000-0  00000+0 0  9995
2 40730  55.5940  12.5275 0044715 342.6955  17.1876  2.00557434 27763
GPS BIIF-11  (PRN 10)   
1 41019U 15062A   19120.19604124  .00000075  00000-0  00000+0 0  9990
2 41019  55.1669 133.1748 0046201 208.0519 151.7474  2.00564820 25580
GPS BIIF-12  (PRN 32)   
1 41328U 16007A   19120.79107343  .00000014  00000-0  00000+0 0  9993
2 41328  54.8188 192.8599 0031160 219.0525 140.7849  2.00574048 23651